start=new Date('2022-02-16T00:00:00.000Z').valueOf();
sats=[{"EPHEMERIS_TYPE":"0","MEAN_MOTION_DOT":"0.00002967","REF_FRAME":"TEME","GP_ID":"196057874","CENTER_NAME":"EARTH","APOAPSIS":"548.361","TIME_SYSTEM":"UTC","OBJECT_TYPE":"PAYLOAD","REV_AT_EPOCH":"9327","OBJECT_ID":"2020-038AX","TLE_LINE1":"1 45775U 20038AX  22046.90594701  .00002967  00000-0  21803-3 0  9991","RA_OF_ASC_NODE":"13.0964","NORAD_CAT_ID":"45775","TLE_LINE2":"2 45775  53.0558  13.0964 0001634  66.5393 293.5767 15.06394754 93279","RCS_SIZE":"LARGE","SITE":"AFETR","PERIAPSIS":"546.098","FILE":"3301463","CLASSIFICATION_TYPE":"U","ELEMENT_SET_NO":"999","OBJECT_NAME":"STARLINK-1488","BSTAR":"0.00021803000000","MEAN_MOTION":"15.06394754","ARG_OF_PERICENTER":"66.5393","EPOCH":"2022-02-15T21:44:33.821664","MEAN_MOTION_DDOT":"0.0000000000000","MEAN_ELEMENT_THEORY":"SGP4","LAUNCH_DATE":"2020-06-13","MEAN_ANOMALY":"293.5767","COUNTRY_CODE":"US","SEMIMAJOR_AXIS":"6925.365","INCLINATION":"53.0558","DECAY_DATE":null,"ECCENTRICITY":"0.00016340","PERIOD":"95.592"},{"MEAN_MOTION_DDOT":"0.0000000000000","ARG_OF_PERICENTER":"50.7122","EPOCH":"2022-02-15T09:10:50.253312","LAUNCH_DATE":"2020-06-13","MEAN_ANOMALY":"309.4012","MEAN_ELEMENT_THEORY":"SGP4","COUNTRY_CODE":"US","SEMIMAJOR_AXIS":"6925.343","INCLINATION":"53.0551","PERIOD":"95.592","DECAY_DATE":null,"ECCENTRICITY":"0.00016460","PERIAPSIS":"546.068","SITE":"AFETR","CLASSIFICATION_TYPE":"U","FILE":"3301229","ELEMENT_SET_NO":"999","MEAN_MOTION":"15.06401862","OBJECT_NAME":"STARLINK-1489","BSTAR":"-0.00004528200000","TLE_LINE1":"1 45776U 20038AY  22046.38252608 -.00000956  00000-0 -45282-4 0  9997","RA_OF_ASC_NODE":"15.4357","TLE_LINE2":"2 45776  53.0551  15.4357 0001646  50.7122 309.4012 15.06401862 93193","NORAD_CAT_ID":"45776","RCS_SIZE":"LARGE","MEAN_MOTION_DOT":"-0.00000956","EPHEMERIS_TYPE":"0","REF_FRAME":"TEME","TIME_SYSTEM":"UTC","OBJECT_TYPE":"PAYLOAD","APOAPSIS":"548.348","GP_ID":"196026275","CENTER_NAME":"EARTH","OBJECT_ID":"2020-038AY","REV_AT_EPOCH":"9319"},{"OBJECT_ID":"2020-038AZ","REV_AT_EPOCH":"9323","OBJECT_TYPE":"PAYLOAD","TIME_SYSTEM":"UTC","GP_ID":"196056373","CENTER_NAME":"EARTH","APOAPSIS":"548.502","REF_FRAME":"TEME","MEAN_MOTION_DOT":"0.00007420","EPHEMERIS_TYPE":"0","RCS_SIZE":"LARGE","TLE_LINE2":"2 45777  53.0554  14.2762 0001878  59.7253 300.3922 15.06403849 93237","NORAD_CAT_ID":"45777","RA_OF_ASC_NODE":"14.2762","TLE_LINE1":"1 45777U 20038AZ  22046.64424294  .00007420  00000-0  51642-3 0  9996","MEAN_MOTION":"15.06403849","BSTAR":"0.00051642000000","OBJECT_NAME":"STARLINK-1490","ELEMENT_SET_NO":"999","CLASSIFICATION_TYPE":"U","FILE":"3301463","PERIAPSIS":"545.901","SITE":"AFETR","DECAY_DATE":null,"PERIOD":"95.592","ECCENTRICITY":"0.00018780","SEMIMAJOR_AXIS":"6925.337","COUNTRY_CODE":"US","INCLINATION":"53.0554","MEAN_ANOMALY":"300.3922","LAUNCH_DATE":"2020-06-13","MEAN_ELEMENT_THEORY":"SGP4","MEAN_MOTION_DDOT":"0.0000000000000","EPOCH":"2022-02-15T15:27:42.590016","ARG_OF_PERICENTER":"59.7253"},{"RCS_SIZE":"LARGE","TLE_LINE1":"1 45778U 20038BA  22046.89119391  .00000129  00000-0  27578-4 0  9994","RA_OF_ASC_NODE":"13.1593","NORAD_CAT_ID":"45778","TLE_LINE2":"2 45778  53.0553  13.1593 0001643  67.6232 292.4931 15.06386289 93253","GP_ID":"196057124","APOAPSIS":"548.393","CENTER_NAME":"EARTH","OBJECT_TYPE":"PAYLOAD","TIME_SYSTEM":"UTC","REV_AT_EPOCH":"9325","OBJECT_ID":"2020-038BA","EPHEMERIS_TYPE":"0","MEAN_MOTION_DOT":"0.00000129","REF_FRAME":"TEME","COUNTRY_CODE":"US","SEMIMAJOR_AXIS":"6925.391","INCLINATION":"53.0553","DECAY_DATE":null,"PERIOD":"95.593","ECCENTRICITY":"0.00016430","EPOCH":"2022-02-15T21:23:19.153824","ARG_OF_PERICENTER":"67.6232","MEAN_MOTION_DDOT":"0.0000000000000","MEAN_ELEMENT_THEORY":"SGP4","LAUNCH_DATE":"2020-06-13","MEAN_ANOMALY":"292.4931","ELEMENT_SET_NO":"999","BSTAR":"0.00002757800000","OBJECT_NAME":"STARLINK-1491","MEAN_MOTION":"15.06386289","SITE":"AFETR","PERIAPSIS":"546.118","FILE":"3301463","CLASSIFICATION_TYPE":"U"},{"OBJECT_TYPE":"PAYLOAD","TIME_SYSTEM":"UTC","APOAPSIS":"548.451","GP_ID":"196057375","CENTER_NAME":"EARTH","OBJECT_ID":"2020-038BB","REV_AT_EPOCH":"9322","MEAN_MOTION_DOT":"-0.00002600","EPHEMERIS_TYPE":"0","REF_FRAME":"TEME","RCS_SIZE":"LARGE","RA_OF_ASC_NODE":"14.0659","TLE_LINE1":"1 45779U 20038BB  22046.68845292 -.00002600  00000-0 -15572-3 0  9996","TLE_LINE2":"2 45779  53.0524  14.0659 0001777  61.6356 298.4812 15.06397672 93223","NORAD_CAT_ID":"45779","ELEMENT_SET_NO":"999","MEAN_MOTION":"15.06397672","BSTAR":"-0.00015572000000","OBJECT_NAME":"STARLINK-1492","PERIAPSIS":"545.990","SITE":"AFETR","CLASSIFICATION_TYPE":"U","FILE":"3301463","COUNTRY_CODE":"US","INCLINATION":"53.0524","SEMIMAJOR_AXIS":"6925.356","DECAY_DATE":null,"ECCENTRICITY":"0.00017770","PERIOD":"95.592","MEAN_MOTION_DDOT":"0.0000000000000","EPOCH":"2022-02-15T16:31:22.332288","ARG_OF_PERICENTER":"61.6356","LAUNCH_DATE":"2020-06-13","MEAN_ANOMALY":"298.4812","MEAN_ELEMENT_THEORY":"SGP4"},{"EPHEMERIS_TYPE":"0","MEAN_MOTION_DOT":"-0.00001761","REF_FRAME":"TEME","APOAPSIS":"548.354","GP_ID":"196056621","CENTER_NAME":"EARTH","TIME_SYSTEM":"UTC","OBJECT_TYPE":"PAYLOAD","REV_AT_EPOCH":"9325","OBJECT_ID":"2020-038BC","RA_OF_ASC_NODE":"13.1374","TLE_LINE1":"1 45780U 20038BC  22046.89855831 -.00001761  00000-0 -99372-4 0  9999","NORAD_CAT_ID":"45780","TLE_LINE2":"2 45780  53.0557  13.1374 0001625  63.9584 296.1572 15.06394920 93259","RCS_SIZE":"LARGE","SITE":"AFETR","PERIAPSIS":"546.104","FILE":"3301463","CLASSIFICATION_TYPE":"U","ELEMENT_SET_NO":"999","OBJECT_NAME":"STARLINK-1496","BSTAR":"-0.00009937200000","MEAN_MOTION":"15.06394920","ARG_OF_PERICENTER":"63.9584","EPOCH":"2022-02-15T21:33:55.437984","MEAN_MOTION_DDOT":"0.0000000000000","MEAN_ELEMENT_THEORY":"SGP4","LAUNCH_DATE":"2020-06-13","MEAN_ANOMALY":"296.1572","INCLINATION":"53.0557","COUNTRY_CODE":"US","SEMIMAJOR_AXIS":"6925.364","PERIOD":"95.592","DECAY_DATE":null,"ECCENTRICITY":"0.00016250"},{"ARG_OF_PERICENTER":"59.1189","EPOCH":"2022-02-15T09:26:45.940128","MEAN_MOTION_DDOT":"0.0000000000000","MEAN_ELEMENT_THEORY":"SGP4","LAUNCH_DATE":"2020-06-13","MEAN_ANOMALY":"300.9957","INCLINATION":"53.0557","COUNTRY_CODE":"US","SEMIMAJOR_AXIS":"6925.395","PERIOD":"95.593","DECAY_DATE":null,"ECCENTRICITY":"0.00016020","SITE":"AFETR","PERIAPSIS":"546.151","FILE":"3301229","CLASSIFICATION_TYPE":"U","ELEMENT_SET_NO":"999","OBJECT_NAME":"STARLINK-1497","BSTAR":"0.00007225700000","MEAN_MOTION":"15.06384831","RA_OF_ASC_NODE":"15.4003","TLE_LINE1":"1 45781U 20038BD  22046.39358727  .00000794  00000-0  72257-4 0  9993","NORAD_CAT_ID":"45781","TLE_LINE2":"2 45781  53.0557  15.4003 0001602  59.1189 300.9957 15.06384831 93180","RCS_SIZE":"LARGE","EPHEMERIS_TYPE":"0","MEAN_MOTION_DOT":"0.00000794","REF_FRAME":"TEME","CENTER_NAME":"EARTH","GP_ID":"196026025","APOAPSIS":"548.369","TIME_SYSTEM":"UTC","OBJECT_TYPE":"PAYLOAD","REV_AT_EPOCH":"9318","OBJECT_ID":"2020-038BD"},{"REF_FRAME":"TEME","EPHEMERIS_TYPE":"0","MEAN_MOTION_DOT":"0.00003405","REV_AT_EPOCH":"9319","OBJECT_ID":"2020-038BE","CENTER_NAME":"EARTH","GP_ID":"196027277","APOAPSIS":"548.390","TIME_SYSTEM":"UTC","OBJECT_TYPE":"PAYLOAD","NORAD_CAT_ID":"45782","TLE_LINE2":"2 45782  53.0564  15.4332 0001650  58.3224 301.7926 15.06389127 93197","RA_OF_ASC_NODE":"15.4332","TLE_LINE1":"1 45782U 20038BE  22046.38621778  .00003405  00000-0  24742-3 0  9999","RCS_SIZE":"LARGE","FILE":"3301229","CLASSIFICATION_TYPE":"U","SITE":"AFETR","PERIAPSIS":"546.104","OBJECT_NAME":"STARLINK-1498","BSTAR":"0.00024742000000","MEAN_MOTION":"15.06389127","ELEMENT_SET_NO":"999","MEAN_ELEMENT_THEORY":"SGP4","LAUNCH_DATE":"2020-06-13","MEAN_ANOMALY":"301.7926","ARG_OF_PERICENTER":"58.3224","EPOCH":"2022-02-15T09:16:09.216192","MEAN_MOTION_DDOT":"0.0000000000000","DECAY_DATE":null,"ECCENTRICITY":"0.00016500","PERIOD":"95.593","SEMIMAJOR_AXIS":"6925.382","COUNTRY_CODE":"US","INCLINATION":"53.0564"},{"ELEMENT_SET_NO":"999","MEAN_MOTION":"15.06393098","BSTAR":"0.00023287000000","OBJECT_NAME":"STARLINK-1505","PERIAPSIS":"546.206","SITE":"AFETR","CLASSIFICATION_TYPE":"U","FILE":"3301229","COUNTRY_CODE":"US","SEMIMAJOR_AXIS":"6925.370","INCLINATION":"53.0575","ECCENTRICITY":"0.00014860","DECAY_DATE":null,"PERIOD":"95.593","MEAN_MOTION_DDOT":"0.0000000000000","EPOCH":"2022-02-15T07:45:55.094112","ARG_OF_PERICENTER":"60.9310","LAUNCH_DATE":"2020-06-13","MEAN_ANOMALY":"299.1827","MEAN_ELEMENT_THEORY":"SGP4","OBJECT_TYPE":"PAYLOAD","TIME_SYSTEM":"UTC","CENTER_NAME":"EARTH","GP_ID":"196027027","APOAPSIS":"548.264","OBJECT_ID":"2020-038BF","REV_AT_EPOCH":"9318","MEAN_MOTION_DOT":"0.00003188","EPHEMERIS_TYPE":"0","REF_FRAME":"TEME","RCS_SIZE":"LARGE","RA_OF_ASC_NODE":"15.7003","TLE_LINE1":"1 45783U 20038BF  22046.32355433  .00003188  00000-0  23287-3 0  9997","TLE_LINE2":"2 45783  53.0575  15.7003 0001486  60.9310 299.1827 15.06393098 93181","NORAD_CAT_ID":"45783"},{"RA_OF_ASC_NODE":"14.3467","TLE_LINE1":"1 45784U 20038BG  22046.62949207 -.00001294  00000-0 -67978-4 0  9993","NORAD_CAT_ID":"45784","TLE_LINE2":"2 45784  53.0566  14.3467 0001570  62.8332 297.2817 15.06396784 93228","RCS_SIZE":"LARGE","EPHEMERIS_TYPE":"0","MEAN_MOTION_DOT":"-0.00001294","REF_FRAME":"TEME","CENTER_NAME":"EARTH","GP_ID":"196056122","APOAPSIS":"548.311","OBJECT_TYPE":"PAYLOAD","TIME_SYSTEM":"UTC","REV_AT_EPOCH":"9322","OBJECT_ID":"2020-038BG","EPOCH":"2022-02-15T15:06:28.114848","ARG_OF_PERICENTER":"62.8332","MEAN_MOTION_DDOT":"0.0000000000000","MEAN_ELEMENT_THEORY":"SGP4","MEAN_ANOMALY":"297.2817","LAUNCH_DATE":"2020-06-13","SEMIMAJOR_AXIS":"6925.358","COUNTRY_CODE":"US","INCLINATION":"53.0566","DECAY_DATE":null,"ECCENTRICITY":"0.00015700","PERIOD":"95.592","SITE":"AFETR","PERIAPSIS":"546.136","FILE":"3301463","CLASSIFICATION_TYPE":"U","ELEMENT_SET_NO":"999","BSTAR":"-0.00006797800000","OBJECT_NAME":"STARLINK-1510","MEAN_MOTION":"15.06396784"}];
